{
  "type": "FeatureCollection",
  "features": [
    {
      "type": "Feature",
      "properties": {
        "norad_id": 29930,
        "name": "FENGYUN 1C DEB",
        "group": "fengyun-1c-debris",
        "lat": -32.21478942159207,
        "lon": 32.884502824611715,
        "alt_km": 904.3418723786563,
        "timestamp": "2025-12-02T15:49:07.461934+00:00",
        "meta_object_name": "FENGYUN 1C DEB",
        "meta_object_id": "1999-025JC",
        "meta_epoch": "2025-12-02T05:15:05.629824",
        "meta_mean_motion": 14.20797674,
        "meta_eccentricity": 0.01646737,
        "meta_inclination": 99.0446,
        "meta_ra_of_asc_node": 218.194,
        "meta_arg_of_pericenter": 83.4636,
        "meta_mean_anomaly": 36.8387,
        "meta_ephemeris_type": 0,
        "meta_classification_type": "U",
        "meta_norad_cat_id": 29930,
        "meta_element_set_no": 999,
        "meta_rev_at_epoch": 97741,
        "meta_bstar": 0.00028905776,
        "meta_mean_motion_dot": 6.7e-06,
        "meta_mean_motion_ddot": 0,
        "tle_line1": "1 29930U 99025JC  25336.21881516  .00000670  00000+0  28906-3 0  9999",
        "tle_line2": "2 29930  99.0446 218.1940 0164673  83.4636  36.8387 14.20797674977419"
      },
      "geometry": {
        "type": "Point",
        "coordinates": [
          32.884502824611715,
          -32.21478942159207
        ]
      }
    },
    {
      "type": "Feature",
      "properties": {
        "norad_id": 29931,
        "name": "FENGYUN 1C DEB",
        "group": "fengyun-1c-debris",
        "lat": 71.70229653833765,
        "lon": -139.62820723056575,
        "alt_km": 850.4840811260192,
        "timestamp": "2025-12-02T15:49:07.461944+00:00",
        "meta_object_name": "FENGYUN 1C DEB",
        "meta_object_id": "1999-025JD",
        "meta_epoch": "2025-12-02T01:53:25.410048",
        "meta_mean_motion": 14.03886076,
        "meta_eccentricity": 0.00326552,
        "meta_inclination": 98.8613,
        "meta_ra_of_asc_node": 11.6569,
        "meta_arg_of_pericenter": 122.3338,
        "meta_mean_anomaly": 292.3504,
        "meta_ephemeris_type": 0,
        "meta_classification_type": "U",
        "meta_norad_cat_id": 29931,
        "meta_element_set_no": 999,
        "meta_rev_at_epoch": 96663,
        "meta_bstar": 4.3785709e-05,
        "meta_mean_motion_dot": 2.7e-07,
        "meta_mean_motion_ddot": 0,
        "tle_line1": "1 29931U 99025JD  25336.07876632  .00000027  00000+0  43786-4 0  9997",
        "tle_line2": "2 29931  98.8613  11.6569 0032655 122.3338 292.3504 14.03886076966630"
      },
      "geometry": {
        "type": "Point",
        "coordinates": [
          -139.62820723056575,
          71.70229653833765
        ]
      }
    },
    {
      "type": "Feature",
      "properties": {
        "norad_id": 29932,
        "name": "FENGYUN 1C DEB",
        "group": "fengyun-1c-debris",
        "lat": 81.02239729434534,
        "lon": -118.24123928274653,
        "alt_km": 801.1967278308757,
        "timestamp": "2025-12-02T15:49:07.461954+00:00",
        "meta_object_name": "FENGYUN 1C DEB",
        "meta_object_id": "1999-025JE",
        "meta_epoch": "2025-12-02T07:00:24.596640",
        "meta_mean_motion": 14.16743436,
        "meta_eccentricity": 0.0038664,
        "meta_inclination": 98.6347,
        "meta_ra_of_asc_node": 347.2862,
        "meta_arg_of_pericenter": 99.6912,
        "meta_mean_anomaly": 281.2219,
        "meta_ephemeris_type": 0,
        "meta_classification_type": "U",
        "meta_norad_cat_id": 29932,
        "meta_element_set_no": 999,
        "meta_rev_at_epoch": 97436,
        "meta_bstar": 0.00037199037,
        "meta_mean_motion_dot": 7.07e-06,
        "meta_mean_motion_ddot": 0,
        "tle_line1": "1 29932U 99025JE  25336.29195135  .00000707  00000+0  37199-3 0  9999",
        "tle_line2": "2 29932  98.6347 347.2862 0038664  99.6912 281.2219 14.16743436974362"
      },
      "geometry": {
        "type": "Point",
        "coordinates": [
          -118.24123928274653,
          81.02239729434534
        ]
      }
    },
    {
      "type": "Feature",
      "properties": {
        "norad_id": 29933,
        "name": "FENGYUN 1C DEB",
        "group": "fengyun-1c-debris",
        "lat": -21.442520084630203,
        "lon": -104.25723704013944,
        "alt_km": 684.0113013658884,
        "timestamp": "2025-12-02T15:49:07.461965+00:00",
        "meta_object_name": "FENGYUN 1C DEB",
        "meta_object_id": "1999-025JF",
        "meta_epoch": "2025-12-02T05:20:32.563104",
        "meta_mean_motion": 14.65241851,
        "meta_eccentricity": 0.00035451,
        "meta_inclination": 98.7498,
        "meta_ra_of_asc_node": 78.7464,
        "meta_arg_of_pericenter": 15.5711,
        "meta_mean_anomaly": 44.8015,
        "meta_ephemeris_type": 0,
        "meta_classification_type": "U",
        "meta_norad_cat_id": 29933,
        "meta_element_set_no": 999,
        "meta_rev_at_epoch": 98351,
        "meta_bstar": 0.0042690755,
        "meta_mean_motion_dot": 0.00023022,
        "meta_mean_motion_ddot": 0,
        "tle_line1": "1 29933U 99025JF  25336.22259911  .00023022  00000+0  42691-2 0  9993",
        "tle_line2": "2 29933  98.7498  78.7464 0003545  15.5711  44.8015 14.65241851983511"
      },
      "geometry": {
        "type": "Point",
        "coordinates": [
          -104.25723704013944,
          -21.442520084630203
        ]
      }
    },
    {
      "type": "Feature",
      "properties": {
        "norad_id": 29934,
        "name": "FENGYUN 1C DEB",
        "group": "fengyun-1c-debris",
        "lat": -18.108781908710828,
        "lon": -160.21935782133036,
        "alt_km": 679.9516283233033,
        "timestamp": "2025-12-02T15:49:07.461975+00:00",
        "meta_object_name": "FENGYUN 1C DEB",
        "meta_object_id": "1999-025JG",
        "meta_epoch": "2025-12-02T01:46:47.457696",
        "meta_mean_motion": 14.63625158,
        "meta_eccentricity": 0.01006659,
        "meta_inclination": 98.9061,
        "meta_ra_of_asc_node": 22.0884,
        "meta_arg_of_pericenter": 285.3345,
        "meta_mean_anomaly": 73.6748,
        "meta_ephemeris_type": 0,
        "meta_classification_type": "U",
        "meta_norad_cat_id": 29934,
        "meta_element_set_no": 999,
        "meta_rev_at_epoch": 99616,
        "meta_bstar": 0.0010040132,
        "meta_mean_motion_dot": 5.557e-05,
        "meta_mean_motion_ddot": 0,
        "tle_line1": "1 29934U 99025JG  25336.07416039  .00005557  00000+0  10040-2 0  9999",
        "tle_line2": "2 29934  98.9061  22.0884 0100665 285.3345  73.6748 14.63625158996161"
      },
      "geometry": {
        "type": "Point",
        "coordinates": [
          -160.21935782133036,
          -18.108781908710828
        ]
      }
    },
    {
      "type": "Feature",
      "properties": {
        "norad_id": 29935,
        "name": "FENGYUN 1C DEB",
        "group": "fengyun-1c-debris",
        "lat": -39.975908307257626,
        "lon": 46.55463659493393,
        "alt_km": 820.6676870212523,
        "timestamp": "2025-12-02T15:49:07.461985+00:00",
        "meta_object_name": "FENGYUN 1C DEB",
        "meta_object_id": "1999-025JH",
        "meta_epoch": "2025-12-02T04:25:31.994976",
        "meta_mean_motion": 14.14229114,
        "meta_eccentricity": 0.01497598,
        "meta_inclination": 98.463,
        "meta_ra_of_asc_node": 38.9342,
        "meta_arg_of_pericenter": 246.6303,
        "meta_mean_anomaly": 175.7887,
        "meta_ephemeris_type": 0,
        "meta_classification_type": "U",
        "meta_norad_cat_id": 29935,
        "meta_element_set_no": 999,
        "meta_rev_at_epoch": 97393,
        "meta_bstar": 0.00016255086,
        "meta_mean_motion_dot": 3.03e-06,
        "meta_mean_motion_ddot": 0,
        "tle_line1": "1 29935U 99025JH  25336.18439809  .00000303  00000+0  16255-3 0  9991",
        "tle_line2": "2 29935  98.4630  38.9342 0149759 246.6303 175.7887 14.14229114973931"
      },
      "geometry": {
        "type": "Point",
        "coordinates": [
          46.55463659493393,
          -39.975908307257626
        ]
      }
    },
    {
      "type": "Feature",
      "properties": {
        "norad_id": 29936,
        "name": "FENGYUN 1C DEB",
        "group": "fengyun-1c-debris",
        "lat": -44.783557796140116,
        "lon": 98.7020394835743,
        "alt_km": 790.7838632973899,
        "timestamp": "2025-12-02T15:49:07.461996+00:00",
        "meta_object_name": "FENGYUN 1C DEB",
        "meta_object_id": "1999-025JJ",
        "meta_epoch": "2025-12-02T07:40:00.696864",
        "meta_mean_motion": 14.35288729,
        "meta_eccentricity": 0.01134905,
        "meta_inclination": 98.6562,
        "meta_ra_of_asc_node": 89.6654,
        "meta_arg_of_pericenter": 217.9336,
        "meta_mean_anomaly": 141.3815,
        "meta_ephemeris_type": 0,
        "meta_classification_type": "U",
        "meta_norad_cat_id": 29936,
        "meta_element_set_no": 999,
        "meta_rev_at_epoch": 98781,
        "meta_bstar": 0.00028104857,
        "meta_mean_motion_dot": 8.18e-06,
        "meta_mean_motion_ddot": 0,
        "tle_line1": "1 29936U 99025JJ  25336.31945251  .00000818  00000+0  28105-3 0  9998",
        "tle_line2": "2 29936  98.6562  89.6654 0113490 217.9336 141.3815 14.35288729987819"
      },
      "geometry": {
        "type": "Point",
        "coordinates": [
          98.7020394835743,
          -44.783557796140116
        ]
      }
    }
  ]
}